STARLINK-3508
1 51862U 22022L   26103.69956488  .00002050  00000+0  14688-3 0  9993
2 51862  53.2140 211.9534 0001623  94.0706 266.0472 15.08833615228450
STARLINK-3555
1 51863U 22022M   26103.54868386 -.00006278  00000+0 -37677-3 0  9998
2 51863  53.2156 212.6341 0001255  83.6868 276.4267 15.08830747228377
STARLINK-3548
1 51864U 22022N   26103.68485945 -.00003053  00000+0 -17393-3 0  9991
2 51864  53.2160 211.9455 0001350  70.3737 289.7401 15.08810473228444
STARLINK-3503
1 51865U 22022P   26103.67380565  .00000549  00000+0  52580-4 0  9996
2 51865  53.2170 212.0712 0001224  86.5227 273.5906 15.08836007228393
STARLINK-3553
1 51866U 22022Q   26103.60482808  .00000146  00000+0  27234-4 0  9994
2 51866  53.2164 212.2372 0001250  93.4481 266.6654 15.08833905228385
STARLINK-3590
1 51867U 22022R   26103.60388386  .00000458  00000+0  46887-4 0  9992
2 51867  53.2168 212.3853 0000974  70.0007 290.1090 15.08837506228389
STARLINK-3578
1 51868U 22022S   26103.74372962  .00002196  00000+0  15596-3 0  9994
2 51868  53.2169 211.7590 0000882  62.1602 297.9479 15.08850553228409
STARLINK-3588
1 51869U 22022T   26103.65907979  .00000416  00000+0  44241-4 0  9990
2 51869  53.2174 212.1381 0001147  87.2139 272.8985 15.08839534228395
STARLINK-3591
1 51870U 22022U   26103.60021203  .00001435  00000+0  10817-3 0  9997
2 51870  53.2167 212.4022 0000486  29.9197 330.1823 15.08846513228435
STARLINK-3567
1 51871U 22022V   26103.72164253  .00000774  00000+0  66690-4 0  9990
2 51871  53.2173 211.8574 0000964  72.9437 287.1660 15.08837658228513
STARLINK-3554
1 51872U 22022W   26103.59652888  .00000534  00000+0  51625-4 0  9998
2 51872  53.2172 212.4207 0001211  87.7216 272.3915 15.08833783228387
STARLINK-3582
1 51873U 22022X   26103.71593678  .00017481  00000+0  83294-3 0  9999
2 51873  53.2121 205.6412 0003411 338.5732  21.5121 15.19218349228490
STARLINK-3574
1 51874U 22022Y   26103.71796385 -.00000303  00000+0 -91916-6 0  9990
2 51874  53.2168 211.8721 0001292  88.4753 271.6388 15.08837295228390
STARLINK-3585
1 51875U 22022Z   26103.69586999 -.00001146  00000+0 -53931-4 0  9995
2 51875  53.2159 211.8840 0001648 101.6757 258.4421 15.08845889228401
STARLINK-3583
1 51876U 22022AA  26103.58180156  .00000151  00000+0  27563-4 0  9994
2 51876  53.2166 212.4818 0001364  92.7257 267.3891 15.08837837228383
STARLINK-3556
1 51877U 22022AB  26103.69680526 -.00001266  00000+0 -61498-4 0  9998
2 51877  53.2173 201.9667 0001000  96.6938 263.4168 15.08829157228530
STARLINK-3575
1 51878U 22022AC  26103.70692844  .00001612  00000+0  11933-3 0  9998
2 51878  53.2170 211.9191 0000996  78.9233 281.1872 15.08839622228408
STARLINK-3572
1 51879U 22022AD  26103.68944805  .00000243  00000+0  33346-4 0  9995
2 51879  53.2169 201.9997 0001248  89.7926 270.3209 15.08834278228530
STARLINK-3566
1 51880U 22022AE  26103.71056923 -.00000286  00000+0  11015-6 0  9995
2 51880  53.2168 211.6228 0001496  87.0128 273.1035 15.08839834228403
STARLINK-3504
1 51881U 22022AF  26103.54960075  .00000154  00000+0  27756-4 0  9999
2 51881  53.2162 202.6292 0001167  86.1692 273.9433 15.08841632228566
STARLINK-3570
1 51882U 22022AG  26103.69408681  .00000370  00000+0  41357-4 0  9999
2 51882  53.2167 201.9889 0001154  89.7620 270.3504 15.08835465228581
STARLINK-3576
1 51883U 22022AH  26103.95811274  .00001573  00000+0  11693-3 0  9990
2 51883  53.2173 200.9767 0001308  72.3157 287.7978 15.08827910228568
STARLINK-3577
1 51884U 22022AJ  26103.68578072 -.00000357  00000+0 -43660-5 0  9999
2 51884  53.2169 202.0167 0001300  93.6420 266.4721 15.08830437228616
STARLINK-3584
1 51885U 22022AK  26103.53856344  .00000812  00000+0  69090-4 0  9993
2 51885  53.2158 202.6788 0001179  91.6392 268.4736 15.08838885228501
STARLINK-3565
1 51886U 22022AL  26103.67840583  .00000607  00000+0  56196-4 0  9992
2 51886  53.2171 202.0478 0001214  90.4007 269.7124 15.08838298228533
STARLINK-3551
1 51887U 22022AM  26103.66736137  .00000489  00000+0  48803-4 0  9995
2 51887  53.2166 202.1009 0001176  88.0152 272.0975 15.08840748228523
STARLINK-3536
1 51888U 22022AN  26103.67472021  .00001235  00000+0  95684-4 0  9995
2 51888  53.2164 202.0682 0001350  90.5475 269.5672 15.08842315228536
STARLINK-3547
1 51889U 22022AP  26103.59008665  .00000332  00000+0  38959-4 0  9995
2 51889  53.2173 202.4488 0001292  88.8893 271.2247 15.08834170228510
STARLINK-3549
1 51891U 22022AR  26103.58640967 -.00001514  00000+0 -77060-4 0  9995
2 51891  53.2170 202.4659 0001128  80.9808 279.1312 15.08841631228562
STARLINK-3587
1 51892U 22022AS  26103.66002360 -.00000158  00000+0  81829-5 0  9995
2 51892  53.2160 202.1327 0001400  91.6137 268.5016 15.08831806228520
STARLINK-3579
1 51893U 22022AT  26103.71153038  .00001367  00000+0  10395-3 0  9991
2 51893  53.2175 201.9027 0001080  84.4162 275.6953 15.08835879228593
STARLINK-3595
1 51894U 22022AU  26103.71520733  .00000034  00000+0  20248-4 0  9991
2 51894  53.2176 201.8852 0001190  84.7041 275.4087 15.08835071228591
STARLINK-3594
1 51895U 22022AV  26103.70784992  .00000149  00000+0  27450-4 0  9999
2 51895  53.2182 201.9168 0001271  93.5920 266.5218 15.08834962228533
STARLINK-3593
1 51896U 22022AW  26103.66371905  .00001718  00000+0  12601-3 0  9995
2 51896  53.2167 202.3377 0001241  89.8096 270.3038 15.08831001228571
STARLINK-3598
1 51897U 22022AX  26103.57168784  .00000747  00000+0  65049-4 0  9991
2 51897  53.2170 202.5290 0001159  90.1959 269.9166 15.08836429228512
STARLINK-3597
1 51898U 22022AY  26103.70050015 -.00000977  00000+0 -43308-4 0  9995
2 51898  53.2184 201.9496 0001676 110.3620 249.7552 15.08827860228584
2022-023A
1 51946U 22023A   26103.93400655  .00003578  00000+0  16450-3 0  9999
2 51946  63.4796 128.5324 0101539 342.0105  17.7423 15.17849278227963
2022-023B
1 51947U 22023B   26103.93073795  .00001296  00000+0  67477-4 0  9992
2 51947  63.4759 127.9316 0096568 346.6024  13.2526 15.17877572227965
2022-023C
1 51948U 22023C   26103.93739081  .00003617  00000+0  16775-3 0  9993
2 51948  63.4890 129.2625 0098419 349.2340  10.6664 15.17793991227963
2022-023D
1 51949U 22023D   26103.95585762  .00003742  00000+0  16470-3 0  9992
2 51949  63.4607 129.9922 0116784 354.8506   5.1395 15.17809359227965
2022-023E
1 51950U 22023E   26103.98592993 -.00000046  00000+0  61742-4 0  9999
2 51950  63.4596 121.2361 0154510 348.5144  11.2377 13.56275828213325
2022-023F
1 51951U 22023F   26103.97767692  .00004021  00000+0  17155-3 0  9993
2 51951  63.4499 131.7381 0125414 344.5130  15.2158 15.17808248227961
STARLINK-3700
1 51956U 22025A   26103.70663674 -.00000052  00000+0  10378-4 0  9998
2 51956  53.1623 210.9003 0001182  82.1106 278.0028 15.30193926226537
STARLINK-3694
1 51957U 22025B   26103.63131858 -.00000066  00000+0  98848-5 0  9999
2 51957  53.1612 234.4056 0001130  78.6167 281.4961 15.30195046226185
STARLINK-3692
1 51958U 22025C   26103.76897897  .00098377  00000+0  32117-2 0  9991
2 51958  53.1611 210.5889 0000968  78.0777 282.0333 15.30977951226546
STARLINK-3704
1 51959U 22025D   26103.71890348 -.00003630  00000+0 -11345-3 0  9992
2 51959  53.1586 234.1568 0000550  60.1975 299.9080 15.29378570226190
STARLINK-3691
1 51960U 22025E   26103.91668981 -.00002842  00000+0 -79839-4 0  9999
2 51960  53.1600 233.0277 0000959  76.7721  91.3682 15.31706817  5895
STARLINK-3697
1 51962U 22025G   26103.73510180  .00000268  00000+0  21157-4 0  9996
2 51962  53.1605 221.2917 0000901  73.0383 287.0716 15.30187042226386
STARLINK-3675
1 51963U 22025H   26103.91668981 -.00024935  00000+0 -79405-3 0  9997
2 51963  53.1608 209.9053 0001039  85.8575  33.3677 15.31715160  5888
STARLINK-3690
1 51964U 22025J   26103.91668981 -.00019375  00000+0 -61410-3 0  9997
2 51964  53.1602 220.6260 0001082  78.7347 183.1417 15.31704720  5931
STARLINK-3696
1 51965U 22025K   26103.54607275  .00000055  00000+0  13543-4 0  9994
2 51965  53.1603 235.2976 0000996  83.9343 276.1772 15.31698273226168
STARLINK-3699
1 51966U 22025L   26103.91668981  .00025979  00000+0  13449-2 0  9992
2 51966  53.0942 232.4207 0000567 167.5511 257.8551 15.16071056  5804
STARLINK-3681
1 51968U 22025N   26103.91668981 -.00022500  00000+0 -71507-3 0  9993
2 51968  53.1608 220.6280 0001190  80.3180 232.9798 15.31717518  5931
STARLINK-3680
1 51969U 22025P   26103.91668981 -.00019531  00000+0 -61892-3 0  9990
2 51969  53.1596 220.6692 0001088 102.5909 133.4959 15.31716920  5780
STARLINK-3677
1 51970U 22025Q   26103.91668981  .00031670  00000+0  15738-2 0  9995
2 51970  53.1004 232.4268 0001236  65.5552  57.6220 15.17406911  5804
STARLINK-3669
1 51971U 22025R   26103.68351305 -.00000215  00000+0  48495-5 0  9990
2 51971  53.1607 221.8243 0001015  77.2180 282.8935 15.30193379226379
STARLINK-3671
1 51972U 22025S   26103.91668981  .00024479  00000+0  11964-2 0  9993
2 51972  53.1032 232.3496 0001458  85.7657 129.8361 15.18123144  5550
STARLINK-3679
1 51973U 22025T   26103.91668981  .00029768  00000+0  15497-2 0  9995
2 51973  53.0931 232.4553 0000056 176.9226 268.4435 15.15803200  5806
STARLINK-3672
1 51974U 22025U   26103.91668981  .00023217  00000+0  11858-2 0  9996
2 51974  53.0967 232.4277 0001866  45.0105 147.2225 15.16609952  5610
STARLINK-3674
1 51975U 22025V   26103.91668981 -.00021645  00000+0 -68744-3 0  9999
2 51975  53.1600 220.1600 0000844  73.1878 214.7448 15.31714597  5777
STARLINK-3660
1 51977U 22025X   26103.72535986  .00001314  00000+0  10060-3 0  9995
2 51977  53.2175 221.8460 0001175  88.0634 272.0493 15.08843099226622
STARLINK-3649
1 51980U 22025AA  26103.64160481  .00000791  00000+0  67764-4 0  9996
2 51980  53.2180 242.2106 0000687 100.2033 259.9037 15.08831485226335
STARLINK-3635
1 51981U 22025AB  26103.72256295 -.00000245  00000+0  27098-5 0  9997
2 51981  53.2168 241.8516 0001311  93.2420 266.8722 15.08839621226347
STARLINK-3655
1 51983U 22025AD  26103.71888088  .00000527  00000+0  51205-4 0  9997
2 51983  53.2155 241.8735 0001302  89.9123 270.2019 15.08841768226343
STARLINK-3664
1 51984U 22025AE  26103.82289261 -.00000217  00000+0  44349-5 0  9997
2 51984  53.2175 241.4871 0000787  34.4356 325.6687 15.08829619226361
